start=new Date('2021-09-15T00:00:00.000Z').valueOf();
sats=[{"GP_ID":"184723980","MEAN_MOTION_DOT":"-0.00000138","MEAN_ANOMALY":"251.4349","COUNTRY_CODE":"US","OBJECT_ID":"2021-017K","SITE":"AFETR","SEMIMAJOR_AXIS":"6925.383","ECCENTRICITY":"0.00014240","EPHEMERIS_TYPE":"0","TLE_LINE1":"1 47731U 21017K   21257.55768939 -.00000138  00000-0  96619-5 0  9991","APOAPSIS":"548.234","TIME_SYSTEM":"UTC","BSTAR":"0.00000966190000","MEAN_MOTION":"15.06388853","RA_OF_ASC_NODE":"0.9839","DECAY_DATE":null,"REV_AT_EPOCH":"3098","RCS_SIZE":"LARGE","TLE_LINE2":"2 47731  53.0572   0.9839 0001424 108.6794 251.4349 15.06388853 30986","ARG_OF_PERICENTER":"108.6794","REF_FRAME":"TEME","MEAN_MOTION_DDOT":"0.0000000000000","CENTER_NAME":"EARTH","PERIAPSIS":"546.262","NORAD_CAT_ID":"47731","EPOCH":"2021-09-14T13:23:04.363296","OBJECT_TYPE":"PAYLOAD","PERIOD":"95.593","MEAN_ELEMENT_THEORY":"SGP4","LAUNCH_DATE":"2021-03-04","FILE":"3115650","INCLINATION":"53.0572","ELEMENT_SET_NO":"999","OBJECT_NAME":"STARLINK-2141","CLASSIFICATION_TYPE":"U"},{"GP_ID":"184722728","MEAN_MOTION_DOT":"0.00009527","COUNTRY_CODE":"US","MEAN_ANOMALY":"8.7883","OBJECT_ID":"2021-017L","SITE":"AFETR","SEMIMAJOR_AXIS":"6727.854","EPHEMERIS_TYPE":"0","ECCENTRICITY":"0.00051630","APOAPSIS":"353.192","TLE_LINE1":"1 47732U 21017L   21257.83222999  .00009527  00000-0  72158-4 0  9995","BSTAR":"0.00007215800000","TIME_SYSTEM":"UTC","MEAN_MOTION":"15.73214574","DECAY_DATE":null,"RA_OF_ASC_NODE":"297.5610","REV_AT_EPOCH":"3189","RCS_SIZE":"LARGE","TLE_LINE2":"2 47732  53.0439 297.5610 0005163 351.3044   8.7883 15.73214574 31898","ARG_OF_PERICENTER":"351.3044","MEAN_MOTION_DDOT":"0.0000000000000","REF_FRAME":"TEME","CENTER_NAME":"EARTH","PERIAPSIS":"346.245","EPOCH":"2021-09-14T19:58:24.671136","NORAD_CAT_ID":"47732","PERIOD":"91.532","OBJECT_TYPE":"PAYLOAD","MEAN_ELEMENT_THEORY":"SGP4","LAUNCH_DATE":"2021-03-04","FILE":"3115650","ELEMENT_SET_NO":"999","INCLINATION":"53.0439","CLASSIFICATION_TYPE":"U","OBJECT_NAME":"STARLINK-2142"},{"FILE":"3115650","ELEMENT_SET_NO":"999","INCLINATION":"53.0580","CLASSIFICATION_TYPE":"U","OBJECT_NAME":"STARLINK-2143","PERIOD":"95.593","OBJECT_TYPE":"PAYLOAD","MEAN_ELEMENT_THEORY":"SGP4","LAUNCH_DATE":"2021-03-04","MEAN_MOTION_DDOT":"0.0000000000000","REF_FRAME":"TEME","CENTER_NAME":"EARTH","PERIAPSIS":"546.402","EPOCH":"2021-09-14T13:05:49.428672","NORAD_CAT_ID":"47733","TLE_LINE2":"2 47733  53.0580  11.1303 0001209  96.2959 263.8168 15.06391452 30887","RCS_SIZE":"LARGE","ARG_OF_PERICENTER":"96.2959","MEAN_MOTION":"15.06391452","RA_OF_ASC_NODE":"11.1303","DECAY_DATE":null,"REV_AT_EPOCH":"3088","SEMIMAJOR_AXIS":"6925.375","EPHEMERIS_TYPE":"0","ECCENTRICITY":"0.00012090","APOAPSIS":"548.077","TLE_LINE1":"1 47733U 21017M   21257.54571098 -.00000162  00000-0  80373-5 0  9997","TIME_SYSTEM":"UTC","BSTAR":"0.00000803730000","COUNTRY_CODE":"US","MEAN_ANOMALY":"263.8168","OBJECT_ID":"2021-017M","SITE":"AFETR","GP_ID":"184722978","MEAN_MOTION_DOT":"-0.00000162"},{"TLE_LINE1":"1 47734U 21017N   21257.56506296 -.00000058  00000-0  15003-4 0  9999","APOAPSIS":"548.275","TIME_SYSTEM":"UTC","BSTAR":"0.00001500300000","EPHEMERIS_TYPE":"0","ECCENTRICITY":"0.00015230","SEMIMAJOR_AXIS":"6925.355","REV_AT_EPOCH":"3099","RA_OF_ASC_NODE":"0.9507","DECAY_DATE":null,"MEAN_MOTION":"15.06397756","MEAN_MOTION_DOT":"-0.00000058","GP_ID":"184724229","SITE":"AFETR","MEAN_ANOMALY":"275.4371","COUNTRY_CODE":"US","OBJECT_ID":"2021-017N","LAUNCH_DATE":"2021-03-04","MEAN_ELEMENT_THEORY":"SGP4","PERIOD":"95.592","OBJECT_TYPE":"PAYLOAD","CLASSIFICATION_TYPE":"U","OBJECT_NAME":"STARLINK-2144","ELEMENT_SET_NO":"999","INCLINATION":"53.0572","FILE":"3115650","ARG_OF_PERICENTER":"84.6792","TLE_LINE2":"2 47734  53.0572   0.9507 0001523  84.6792 275.4371 15.06397756 30996","RCS_SIZE":"LARGE","EPOCH":"2021-09-14T13:33:41.439744","NORAD_CAT_ID":"47734","PERIAPSIS":"546.166","CENTER_NAME":"EARTH","MEAN_MOTION_DDOT":"0.0000000000000","REF_FRAME":"TEME"},{"REV_AT_EPOCH":"3188","MEAN_MOTION":"15.73212155","RA_OF_ASC_NODE":"297.5609","DECAY_DATE":null,"TLE_LINE1":"1 47735U 21017P   21257.83199084  .00007244  00000-0  55957-4 0  9998","BSTAR":"0.00005595700000","APOAPSIS":"353.107","TIME_SYSTEM":"UTC","SEMIMAJOR_AXIS":"6727.861","ECCENTRICITY":"0.00050260","EPHEMERIS_TYPE":"0","SITE":"AFETR","COUNTRY_CODE":"US","OBJECT_ID":"2021-017P","MEAN_ANOMALY":"14.7764","MEAN_MOTION_DOT":"0.00007244","GP_ID":"184724480","OBJECT_NAME":"STARLINK-2146","CLASSIFICATION_TYPE":"U","FILE":"3115650","INCLINATION":"53.0432","ELEMENT_SET_NO":"999","LAUNCH_DATE":"2021-03-04","OBJECT_TYPE":"PAYLOAD","PERIOD":"91.532","MEAN_ELEMENT_THEORY":"SGP4","PERIAPSIS":"346.344","NORAD_CAT_ID":"47735","EPOCH":"2021-09-14T19:58:04.008576","REF_FRAME":"TEME","MEAN_MOTION_DDOT":"0.0000000000000","CENTER_NAME":"EARTH","ARG_OF_PERICENTER":"345.3106","RCS_SIZE":"LARGE","TLE_LINE2":"2 47735  53.0432 297.5609 0005026 345.3106  14.7764 15.73212155 31889"},{"MEAN_MOTION_DOT":"-0.00000524","GP_ID":"184723228","SITE":"AFETR","OBJECT_ID":"2021-017Q","COUNTRY_CODE":"US","MEAN_ANOMALY":"246.6325","APOAPSIS":"548.068","TLE_LINE1":"1 47736U 21017Q   21257.53281356 -.00000524  00000-0 -16268-4 0  9998","BSTAR":"-0.00001626800000","TIME_SYSTEM":"UTC","SEMIMAJOR_AXIS":"6925.371","EPHEMERIS_TYPE":"0","ECCENTRICITY":"0.00012010","REV_AT_EPOCH":"3116","MEAN_MOTION":"15.06392530","RA_OF_ASC_NODE":"351.0860","DECAY_DATE":null,"ARG_OF_PERICENTER":"113.4790","RCS_SIZE":"LARGE","TLE_LINE2":"2 47736  53.0585 351.0860 0001201 113.4790 246.6325 15.06392530 31160","PERIAPSIS":"546.405","EPOCH":"2021-09-14T12:47:15.091584","NORAD_CAT_ID":"47736","MEAN_MOTION_DDOT":"0.0000000000000","REF_FRAME":"TEME","CENTER_NAME":"EARTH","LAUNCH_DATE":"2021-03-04","PERIOD":"95.593","OBJECT_TYPE":"PAYLOAD","MEAN_ELEMENT_THEORY":"SGP4","CLASSIFICATION_TYPE":"U","OBJECT_NAME":"STARLINK-2147","FILE":"3115650","ELEMENT_SET_NO":"999","INCLINATION":"53.0585"},{"CLASSIFICATION_TYPE":"U","OBJECT_NAME":"STARLINK-2148","FILE":"3115650","ELEMENT_SET_NO":"999","INCLINATION":"53.0435","LAUNCH_DATE":"2021-03-04","PERIOD":"91.532","OBJECT_TYPE":"PAYLOAD","MEAN_ELEMENT_THEORY":"SGP4","PERIAPSIS":"346.186","EPOCH":"2021-09-14T19:58:13.812384","NORAD_CAT_ID":"47737","MEAN_MOTION_DDOT":"0.0000000000000","REF_FRAME":"TEME","CENTER_NAME":"EARTH","ARG_OF_PERICENTER":"350.8488","TLE_LINE2":"2 47737  53.0435 297.5656 0005243 350.8488   9.2434 15.73216435 31935","RCS_SIZE":"LARGE","REV_AT_EPOCH":"3193","MEAN_MOTION":"15.73216435","DECAY_DATE":null,"RA_OF_ASC_NODE":"297.5656","BSTAR":"0.00001915100000","TLE_LINE1":"1 47737U 21017R   21257.83210431  .00002065  00000-0  19151-4 0  9992","APOAPSIS":"353.241","TIME_SYSTEM":"UTC","SEMIMAJOR_AXIS":"6727.848","EPHEMERIS_TYPE":"0","ECCENTRICITY":"0.00052430","SITE":"AFETR","OBJECT_ID":"2021-017R","COUNTRY_CODE":"US","MEAN_ANOMALY":"9.2434","MEAN_MOTION_DOT":"0.00002065","GP_ID":"184723478"},{"CLASSIFICATION_TYPE":"U","OBJECT_NAME":"STARLINK-2149","ELEMENT_SET_NO":"999","INCLINATION":"53.0557","FILE":"3115650","LAUNCH_DATE":"2021-03-04","MEAN_ELEMENT_THEORY":"SGP4","PERIOD":"95.592","OBJECT_TYPE":"PAYLOAD","EPOCH":"2021-09-14T11:32:56.645952","NORAD_CAT_ID":"47738","PERIAPSIS":"541.379","CENTER_NAME":"EARTH","MEAN_MOTION_DDOT":"0.0000000000000","REF_FRAME":"TEME","ARG_OF_PERICENTER":"141.0629","RCS_SIZE":"LARGE","TLE_LINE2":"2 47738  53.0557 351.3412 0008404 141.0629 219.0967 15.06404634 31151","REV_AT_EPOCH":"3115","DECAY_DATE":null,"RA_OF_ASC_NODE":"351.3412","MEAN_MOTION":"15.06404634","APOAPSIS":"553.019","TLE_LINE1":"1 47738U 21017S   21257.48121118 -.00000764  00000-0 -32161-4 0  9999","TIME_SYSTEM":"UTC","BSTAR":"-0.00003216100000","ECCENTRICITY":"0.00084040","EPHEMERIS_TYPE":"0","SEMIMAJOR_AXIS":"6925.334","SITE":"AFETR","COUNTRY_CODE":"US","OBJECT_ID":"2021-017S","MEAN_ANOMALY":"219.0967","MEAN_MOTION_DOT":"-0.00000764","GP_ID":"184723730"},{"OBJECT_NAME":"STARLINK-2150","CLASSIFICATION_TYPE":"U","FILE":"3115650","INCLINATION":"53.0580","ELEMENT_SET_NO":"999","LAUNCH_DATE":"2021-03-04","OBJECT_TYPE":"PAYLOAD","PERIOD":"95.592","MEAN_ELEMENT_THEORY":"SGP4","PERIAPSIS":"546.121","NORAD_CAT_ID":"47739","EPOCH":"2021-09-14T14:16:48.223776","REF_FRAME":"TEME","MEAN_MOTION_DDOT":"0.0000000000000","CENTER_NAME":"EARTH","ARG_OF_PERICENTER":"94.9876","TLE_LINE2":"2 47739  53.0580  15.8255 0001576  94.9876 265.1293 15.06400304 30825","RCS_SIZE":"LARGE","REV_AT_EPOCH":"3082","MEAN_MOTION":"15.06400304","DECAY_DATE":null,"RA_OF_ASC_NODE":"15.8255","TLE_LINE1":"1 47739U 21017T   21257.59500259  .00001218  00000-0  10063-3 0  9998","APOAPSIS":"548.304","BSTAR":"0.00010063000000","TIME_SYSTEM":"UTC","SEMIMAJOR_AXIS":"6925.348","EPHEMERIS_TYPE":"0","ECCENTRICITY":"0.00015760","SITE":"AFETR","COUNTRY_CODE":"US","OBJECT_ID":"2021-017T","MEAN_ANOMALY":"265.1293","MEAN_MOTION_DOT":"0.00001218","GP_ID":"184723981"},{"ARG_OF_PERICENTER":"96.2421","TLE_LINE2":"2 47740  53.0575   0.0182 0001366  96.2421 263.8723 15.06391582 31050","RCS_SIZE":"LARGE","NORAD_CAT_ID":"47740","EPOCH":"2021-09-14T18:36:13.928544","PERIAPSIS":"546.293","CENTER_NAME":"EARTH","REF_FRAME":"TEME","MEAN_MOTION_DDOT":"0.0000000000000","LAUNCH_DATE":"2021-03-04","MEAN_ELEMENT_THEORY":"SGP4","OBJECT_TYPE":"PAYLOAD","PERIOD":"95.593","OBJECT_NAME":"STARLINK-2152","CLASSIFICATION_TYPE":"U","INCLINATION":"53.0575","ELEMENT_SET_NO":"999","FILE":"3115650","MEAN_MOTION_DOT":"-0.00001537","GP_ID":"184722729","SITE":"AFETR","COUNTRY_CODE":"US","OBJECT_ID":"2021-017U","MEAN_ANOMALY":"263.8723","APOAPSIS":"548.185","TLE_LINE1":"1 47740U 21017U   21257.77516121 -.00001537  00000-0 -84331-4 0  9991","TIME_SYSTEM":"UTC","BSTAR":"-0.00008433100000","EPHEMERIS_TYPE":"0","ECCENTRICITY":"0.00013660","SEMIMAJOR_AXIS":"6925.374","REV_AT_EPOCH":"3105","DECAY_DATE":null,"RA_OF_ASC_NODE":"0.0182","MEAN_MOTION":"15.06391582"}];
